OSCAR 7 (AO-7)          
1 07530U 74089B   26178.03954676 -.00000030  00000+0  10421-3 0  9991
2 07530 101.9899 191.3888 0012643 111.8939 316.9685 12.53698230361759
PHASE 3B (AO-10)        
1 14129U 83058B   26177.59526760 -.00000217  00000+0  00000+0 0  9993
2 14129  25.9202 218.0092 6007622 118.2548 314.1516  2.05872938295688
UOSAT 2 (UO-11)         
1 14781U 84021B   26178.15510199  .00001195  00000+0  12712-3 0  9992
2 14781  97.8062 143.6186 0008498 141.6866 218.4958 14.90807044258611
LUSAT (LO-19)           
1 20442U 90005G   26178.01934578  .00000116  00000+0  58251-4 0  9999
2 20442  98.8847 200.0958 0011691 171.9725 188.1648 14.34125935903805
EYESAT A (AO-27)        
1 22825U 93061C   26178.13882514  .00000087  00000+0  50002-4 0  9999
2 22825  98.6877 245.5486 0009479  74.1419 286.0808 14.30944709708429
ITAMSAT (IO-26)         
1 22826U 93061D   26178.18517104  .00000088  00000+0  50146-4 0  9995
2 22826  98.6824 245.5135 0009860  58.9452 301.2698 14.31371902708746
RADIO ROSTO (RS15)      
1 23439U 94085A   26178.04915902 -.00000051  00000+0 -25429-3 0  9993
2 23439  64.8184 287.2670 0156279   2.0531 358.1003 11.27583418297016
JAS-2 (FO-29)           
1 24278U 96046B   26178.14431691 -.00000016  00000+0  17295-4 0  9996
2 24278  98.5232  25.6520 0350893  70.6707 293.2023 13.53274807474511
TECHSAT 1B (GO-32)      
1 25397U 98043D   26177.96864711  .00000060  00000+0  46233-4 0  9992
2 25397  99.0071 170.9741 0001545 144.7408 215.3872 14.24430194452726
ISS (ZARYA)             
1 25544U 98067A   26178.18698937  .00007470  00000+0  14139-3 0  9993
2 25544  51.6321 250.5931 0004286 237.0870 122.9706 15.49451091573306
PCSAT (NO-44)           
1 26931U 01043C   26178.21703959  .00000090  00000+0  64445-4 0  9994
2 26931  67.0492 218.3302 0006037 265.1570  94.8842 14.31959185291881
SAUDISAT 1C (SO-50)     
1 27607U 02058C   26178.20265002  .00000946  00000+0  12876-3 0  9993
2 27607  64.5520  97.9980 0075030 260.6035  98.6583 14.83066892265947
CUTE-1 (CO-55)          
1 27844U 03031E   26178.01237788  .00000284  00000+0  14187-3 0  9999
2 27844  98.6736 186.4477 0010136 150.4505 209.7249 14.24341380193077
CUBESAT XI-IV (CO-57)   
1 27848U 03031J   26177.93548419  .00000243  00000+0  12580-3 0  9999
2 27848  98.6768 186.0767 0009653 168.4758 191.6643 14.23625736192766
MOZHAETS 4 (RS22)       
1 27939U 03042A   26178.20555735  .00000689  00000+0  11438-3 0  9997
2 27939  98.3471   2.8476 0010063 233.7651 246.0174 14.73482960217028
CUBESAT XI-V            
1 28895U 05043F   26177.91503073  .00001438  00000+0  23373-3 0  9991
2 28895  98.2993 333.7414 0014316 169.8184 190.3315 14.72656457103183
CUTE-1.7+APD II (CO-65) 
1 32785U 08021C   26178.19209469  .00004934  00000+0  31141-3 0  9992
2 32785  97.8271 159.8192 0008737   7.9192 352.2173 15.09543869986702
SEEDS II (CO-66)        
1 32791U 08021J   26177.92722941  .00019616  00000+0  61568-3 0  9993
2 32791  97.7516 176.2919 0000556 212.5247 147.5960 15.33073710988785
YUBILEINY (RS30)        
1 32953U 08025A   26178.15821922  .00000076  00000+0  47512-3 0  9995
2 32953  82.5045 349.2367 0018560 290.9376  68.9717 12.43180143820935
KKS-1 (KISEKI)          
1 33499U 09002H   26178.17405571  .00001343  00000+0  17153-3 0  9993
2 33499  98.1187 100.7747 0006395 256.2471 103.8030 14.83147944937672
SWISSCUBE               
1 35932U 09051B   26178.02071692  .00000965  00000+0  20010-3 0  9993
2 35932  98.4029  86.0801 0006677 170.6881 189.4445 14.62499043890594
BEESAT-1                
1 35933U 09051C   26177.69301354  .00000752  00000+0  16076-3 0  9998
2 35933  98.3957  85.3622 0004848 183.3217 176.7952 14.61734342890572
ITUPSAT1                
1 35935U 09051E   26177.69222981  .00000700  00000+0  15443-3 0  9998
2 35935  98.4042  84.5432 0006750 199.9772 160.1164 14.60453570890126
XIWANG-1 (HOPE-1)       
1 36122U 09072B   26178.12376630  .00000000  00000+0  11598-3 0  9990
2 36122 100.4023 131.7972 0007038 207.0962 152.9784 13.16440217794319
O/OREOS (USA 219)       
1 37224U 10062C   26178.04056889  .00002307  00000+0  22310-3 0  9993
2 37224  71.9714  58.0196 0012924  42.0426 318.1734 14.93783616118111
JUGNU                   
1 37839U 11058B   26177.91378177  .00000404  00000+0  71065-4 0  9991
2 37839  19.9597 249.3371 0018444 183.2856 332.8974 14.13779071760408
SRMSAT                  
1 37841U 11058D   26178.20632691  .00000372  00000+0  58207-4 0  9998
2 37841  19.9735 358.8265 0011727 314.5586 200.6524 14.11577536759231
STRAND-1                
1 39090U 13009E   26177.94228705  .00000286  00000+0  11041-3 0  9999
2 39090  98.3924 357.9366 0008273 193.8738 166.2222 14.37168802698460
ZACUBE-1 (TSHEPISOSAT)  
1 39417U 13066B   26178.13884486  .00003358  00000+0  26151-3 0  9992
2 39417  97.8047 140.5267 0042184 213.8179 146.0354 15.01240877682224
GOMX-1                  
1 39430U 13066Q   26178.19553836  .00002099  00000+0  31859-3 0  9997
2 39430  97.6483  18.0266 0129828  45.7732 315.4048 14.69493629671382
